STARLINK-2022           
1 47643U 21012Z   23324.93326635 -.00006360  00000+0 -40869-3 0  9997
2 47643  53.0538 221.4322 0001773 105.8902 254.2282 15.06379949153691
